STARLINK-31386          
1 59298U 24056C   26165.38994654  .00000288  00000+0  19992-4 0  9999
2 59298  43.0040  44.5780 0001276 269.0140  91.0566 15.27574700125948
STARLINK-31409          
1 59299U 24056D   26164.93577633  .00000179  00000+0  16055-4 0  9990
2 59299  43.0086  40.2673 0001386 279.9490  80.1206 15.27577429126079
STARLINK-31489          
1 59300U 24056E   26165.50529840  .00013002  00000+0  48118-3 0  9997
2 59300  43.0030  43.7232 0001231 276.0781  83.9930 15.27580465125966
STARLINK-31502          
1 59301U 24056F   26165.36776440  .00000103  00000+0  13306-4 0  9992
2 59301  43.0220  37.4811 0003312 270.0451  90.0021 15.27582075126028
STARLINK-31447          
1 59302U 24056G   26165.39251870 -.00000999  00000+0 -26796-4 0  9993
2 59302  43.0055  44.5943 0001524 269.4768  90.5910 15.27569639125949
STARLINK-31504          
1 59303U 24056H   26163.63478684  .00000295  00000+0  20239-4 0  9996
2 59303  43.0028  54.6215 0001126 251.4032 108.6697 15.27578237125674
STARLINK-31474          
1 59304U 24056J   26165.33323764 -.00001324  00000+0 -38605-4 0  9996
2 59304  43.0036  38.0876 0001112 265.0117  95.0608 15.27571783126012
STARLINK-31500          
1 59305U 24056K   26164.93866422  .00000661  00000+0  33536-4 0  9994
2 59305  43.0012  47.2033 0001551 257.5004 102.5674 15.27576360125878
STARLINK-31480          
1 59306U 24056L   26165.38224007 -.00000386  00000+0 -45056-5 0  9999
2 59306  43.0055  44.5169 0001147 265.6689  94.4032 15.27560816125940
STARLINK-31282          
1 59307U 24056M   26164.94637932 -.00000928  00000+0 -24187-4 0  9999
2 59307  43.0054  47.2662 0002119 281.7529  78.3085 15.27570204125873
STARLINK-31485          
1 59308U 24056N   26164.95408499 -.00000612  00000+0 -12733-4 0  9999
2 59308  43.0041  47.3203 0001273 272.6248  87.4458 15.27573279125879
STARLINK-31455          
1 59309U 24056P   26165.34691927 -.00003492  00000+0 -11757-3 0  9997
2 59309  43.0010  41.6576 0001198 264.1990  95.8725 15.27546741125977
STARLINK-31475          
1 59310U 24056Q   26165.34431769 -.00000710  00000+0 -16266-4 0  9996
2 59310  42.9959  41.6295 0002020 289.2410  70.8223 15.27572379126093
STARLINK-31445          
1 59312U 24056S   26165.40439698 -.00000522  00000+0 -94747-5 0  9996
2 59312  42.9948  51.6023 0001044 270.9520  89.1212 15.27572335125864
STARLINK-31495          
1 59313U 24056T   26165.52922992  .00116948  00000+0  33999-2 0  9991
2 59313  42.9990  35.2388 0008753 249.0268 110.9650 15.34287267126061
STARLINK-31477          
1 59314U 24056U   26165.34722039  .00001466  00000+0  62815-4 0  9991
2 59314  43.0024  37.3303 0000956 273.8563  86.2179 15.27565386126022
STARLINK-31446          
1 59315U 24056V   26165.37065723  .00003184  00000+0  12511-3 0  9991
2 59315  43.0060  44.4359 0001519 283.0468  77.0214 15.27596555125946
STARLINK-31479          
1 59316U 24056W   26165.37289227  .00001084  00000+0  48918-4 0  9997
2 59316  42.9992  48.7664 0001645 275.2089  84.8575 15.27588915125898
STARLINK-31349          
1 59317U 24056X   26165.38609273 -.00000372  00000+0 -39985-5 0  9992
2 59317  42.9966  44.5429 0000487 272.1472  87.9324 15.27573566126015
STARLINK-31464          
1 59318U 24056Y   26165.37836323  .00000702  00000+0  35010-4 0  9999
2 59318  42.9926  44.4845 0000903 291.2498  68.8257 15.27582865125942
STARLINK-31402          
1 59320U 24057A   26165.13326445  .00070151  00000+0  22982-2 0  9993
2 59320  43.0047 314.4996 0006808 302.4890  57.5305 15.30746498125126
STARLINK-31578          
1 59321U 24057B   26165.26197578 -.00000395  00000+0 -48299-5 0  9998
2 59321  42.9972   1.2444 0001184 262.3444  97.7273 15.27574674124616
STARLINK-31530          
1 59322U 24057C   26165.53684491  .00068260  00000+0  56144-3 0  9993
2 59322  42.9886 334.5133 0028156 300.8782  58.9316 15.68971684124949
STARLINK-31565          
1 59323U 24057D   26164.30476895  .00003286  00000+0  12880-3 0  9991
2 59323  42.9934  14.7535 0000133 158.1656 201.9201 15.27595496124374
STARLINK-31570          
1 59324U 24057E   26165.25956184 -.00000617  00000+0 -12933-4 0  9998
2 59324  42.9985   2.0901 0000102 249.5339 110.5502 15.27574083124601
STARLINK-31611          
1 59325U 24057F   26165.26084421 -.00001324  00000+0 -38634-4 0  9998
2 59325  42.9988   2.1022 0000557 104.9011 255.1902 15.27570855124608
STARLINK-31632          
1 59326U 24057G   26165.29536682 -.00000444  00000+0 -66126-5 0  9993
2 59326  43.0042  12.7461 0000818 273.8306  86.2452 15.27575337124488
STARLINK-31599          
1 59327U 24057H   26164.95175408  .00000223  00000+0  17607-4 0  9993
2 59327  42.9986   3.2243 0001113 291.8030  68.2703 15.27579216124568
STARLINK-31614          
1 59328U 24057J   26165.23770856 -.00001167  00000+0 -32883-4 0  9997
2 59328  43.0074   1.9315 0000674 273.4219  86.6556 15.27587995124608
STARLINK-31493          
1 59329U 24057K   26164.82868794 -.00000869  00000+0 -22090-4 0  9998
2 59329  42.9923   4.0092 0000765 234.8642 125.2138 15.27571351124546
