OBJECT_NAME,OBJECT_ID,EPOCH,MEAN_MOTION,ECCENTRICITY,INCLINATION,RA_OF_ASC_NODE,ARG_OF_PERICENTER,MEAN_ANOMALY,EPHEMERIS_TYPE,CLASSIFICATION_TYPE,NORAD_CAT_ID,ELEMENT_SET_NO,REV_AT_EPOCH,BSTAR,MEAN_MOTION_DOT,MEAN_MOTION_DDOT
STARLINK-31386,2024-056C,2026-06-14T09:21:31.381056,15.27574700,.0001276,43.0040,44.5780,269.0140,91.0566,0,U,59298,999,12594,.19992E-4,.288E-5,0
STARLINK-31409,2024-056D,2026-06-13T22:27:31.074912,15.27577429,.0001386,43.0086,40.2673,279.9490,80.1206,0,U,59299,999,12607,.16055E-4,.179E-5,0
STARLINK-31489,2024-056E,2026-06-14T12:07:37.781760,15.27580465,.0001231,43.0030,43.7232,276.0781,83.9930,0,U,59300,999,12596,.48118E-3,.13002E-3,0
STARLINK-31502,2024-056F,2026-06-14T08:49:34.844160,15.27582075,.0003312,43.0220,37.4811,270.0451,90.0021,0,U,59301,999,12602,.13306E-4,.103E-5,0
STARLINK-31447,2024-056G,2026-06-14T09:25:13.615680,15.27569639,.0001524,43.0055,44.5943,269.4768,90.5910,0,U,59302,999,12594,-.26796E-4,-.999E-5,0
STARLINK-31504,2024-056H,2026-06-12T15:14:05.582976,15.27578237,.00011263,43.0028,54.6215,251.4032,108.6697,0,U,59303,999,12567,.20239327E-4,.295E-5,0
STARLINK-31474,2024-056J,2026-06-14T07:59:51.732096,15.27571783,.0001112,43.0036,38.0876,265.0117,95.0608,0,U,59304,999,12601,-.38605E-4,-.1324E-4,0
STARLINK-31500,2024-056K,2026-06-13T22:31:40.588608,15.27576360,.0001551,43.0012,47.2033,257.5004,102.5674,0,U,59305,999,12587,.33536E-4,.661E-5,0
STARLINK-31480,2024-056L,2026-06-14T09:10:25.542048,15.27560816,.0001147,43.0055,44.5169,265.6689,94.4032,0,U,59306,999,12594,-.45056E-5,-.386E-5,0
STARLINK-31282,2024-056M,2026-06-13T22:42:47.173248,15.27570204,.0002119,43.0054,47.2662,281.7529,78.3085,0,U,59307,999,12587,-.24187E-4,-.928E-5,0
STARLINK-31485,2024-056N,2026-06-13T22:53:52.943136,15.27573279,.0001273,43.0041,47.3203,272.6248,87.4458,0,U,59308,999,12587,-.12733E-4,-.612E-5,0
STARLINK-31455,2024-056P,2026-06-14T08:19:33.824928,15.27546741,.0001198,43.0010,41.6576,264.1990,95.8725,0,U,59309,999,12597,-.11757E-3,-.3492E-4,0
STARLINK-31475,2024-056Q,2026-06-14T08:15:49.048416,15.27572379,.000202,42.9959,41.6295,289.2410,70.8223,0,U,59310,999,12609,-.16266E-4,-.71E-5,0
STARLINK-31445,2024-056S,2026-06-14T09:42:19.899072,15.27572335,.0001044,42.9948,51.6023,270.9520,89.1212,0,U,59312,999,12586,-.94747E-5,-.522E-5,0
STARLINK-31495,2024-056T,2026-06-14T12:42:05.465088,15.34287267,.0008753,42.9990,35.2388,249.0268,110.9650,0,U,59313,999,12606,.33999E-2,.116948E-2,0
STARLINK-31477,2024-056U,2026-06-14T08:19:59.841696,15.27565386,.0000956,43.0024,37.3303,273.8563,86.2179,0,U,59314,999,12602,.62815E-4,.1466E-4,0
STARLINK-31446,2024-056V,2026-06-14T08:53:44.784672,15.27596555,.0001519,43.0060,44.4359,283.0468,77.0214,0,U,59315,999,12594,.12511E-3,.3184E-4,0
STARLINK-31479,2024-056W,2026-06-14T08:56:57.892128,15.27588915,.0001645,42.9992,48.7664,275.2089,84.8575,0,U,59316,999,12589,.48918E-4,.1084E-4,0
STARLINK-31349,2024-056X,2026-06-14T09:15:58.411872,15.27573566,.0000487,42.9966,44.5429,272.1472,87.9324,0,U,59317,999,12601,-.39985E-5,-.372E-5,0
STARLINK-31464,2024-056Y,2026-06-14T09:04:50.583072,15.27582865,.0000903,42.9926,44.4845,291.2498,68.8257,0,U,59318,999,12594,.3501E-4,.702E-5,0
STARLINK-31402,2024-057A,2026-06-14T03:11:54.048480,15.30746498,.00068082,43.0047,314.4996,302.4890,57.5305,0,U,59320,999,12512,.22982017E-2,.70151E-3,0
STARLINK-31578,2024-057B,2026-06-14T06:17:14.707392,15.27574674,.0001184,42.9972,1.2444,262.3444,97.7273,0,U,59321,999,12461,-.48299E-5,-.395E-5,0
STARLINK-31530,2024-057C,2026-06-14T12:53:03.400224,15.68971684,.0028156,42.9886,334.5133,300.8782,58.9316,0,U,59322,999,12494,.56144E-3,.6826E-3,0
STARLINK-31565,2024-057D,2026-06-13T07:18:52.037280,15.27595496,.0000133,42.9934,14.7535,158.1656,201.9201,0,U,59323,999,12437,.12880046E-3,.3286E-4,0
STARLINK-31570,2024-057E,2026-06-14T06:13:46.142976,15.27574083,.0000102,42.9985,2.0901,249.5339,110.5502,0,U,59324,999,12460,-.12933E-4,-.617E-5,0
STARLINK-31611,2024-057F,2026-06-14T06:15:36.939744,15.27570855,.0000557,42.9988,2.1022,104.9011,255.1902,0,U,59325,999,12460,-.38634E-4,-.1324E-4,0
STARLINK-31632,2024-057G,2026-06-14T07:05:19.693248,15.27575337,.0000818,43.0042,12.7461,273.8306,86.2452,0,U,59326,999,12448,-.66126E-5,-.444E-5,0
STARLINK-31599,2024-057H,2026-06-13T22:50:31.552512,15.27579216,.00011131,42.9986,3.2243,291.8030,68.2703,0,U,59327,999,12456,.17606975E-4,.223E-5,0
STARLINK-31614,2024-057J,2026-06-14T05:42:18.019584,15.27587995,.0000674,43.0074,1.9315,273.4219,86.6556,0,U,59328,999,12460,-.32883E-4,-.1167E-4,0
STARLINK-31493,2024-057K,2026-06-13T19:53:18.638016,15.27571351,.00007655,42.9923,4.0092,234.8642,125.2138,0,U,59329,999,12454,-.22090268E-4,-.869E-5,0
